ONEWEB-0196             
1 48218U 21031J   25023.91296527  .00000172  00000+0  42934-3 0  9997
2 48218  87.8990  30.9646 0001836  92.2067 267.9273 13.14504950181321
ONEWEB-0183             
1 48219U 21031K   25023.96370090 -.00000221  00000+0 -63047-3 0  9996
2 48219  87.8994  30.9679 0001821  83.5729 276.5608 13.14501372181428
ONEWEB-0185             
1 48220U 21031L   25023.91375583  .00000144  00000+0  35499-3 0  9997
2 48220  87.8987  30.9493 0002036  86.2815 273.8547 13.14501806181346
ONEWEB-0187             
1 48221U 21031M   25023.95973965 -.00000154  00000+0 -45099-3 0  9990
2 48221  87.8993  30.9747 0001882  86.3222 273.8123 13.14502691181362
ONEWEB-0192             
1 48222U 21031N   25023.55932304  .00000081  00000+0  18491-3 0  9992
2 48222  87.8994  31.0523 0001872  93.4420 266.6924 13.14503003181228
ONEWEB-0219             
1 48223U 21031P   25023.91929506  .00000269  00000+0  68975-3 0  9993
2 48223  87.8990  30.9545 0001985  87.8589 272.2768 13.14503148181471
ONEWEB-0202             
1 48224U 21031Q   25023.97640008 -.00000058  00000+0 -19169-3 0  9996
2 48224  87.8989  30.9592 0002479 101.4043 258.7366 13.14504251181467
ONEWEB-0204             
1 48225U 21031R   25023.93435964  .00000052  00000+0  10519-3 0  9998
2 48225  87.8989  30.9801 0001647  78.6297 281.5017 13.14503553181352
